{"type": "FeatureCollection", "features": [ {"type": "Feature", "properties": {"norad_id": 34635, "name": "COSMOS 2251 DEB", "group": "cosmos-2251-debris", "lat": 42.9610751370161, "lon": -137.23478176425326, "alt_km": 642.9785540550911, "timestamp": "2025-12-19T04:59:48.701651+00:00", "meta": {"OBJECT_NAME": "COSMOS 2251 DEB", "OBJECT_ID": "1993-036XG", "EPOCH": "2025-12-18T14:12:43.790400", "MEAN_MOTION": 14.68338921, "ECCENTRICITY": 0.0028072, "INCLINATION": 74.0459, "RA_OF_ASC_NODE": 59.4054, "ARG_OF_PERICENTER": 126.1956, "MEAN_ANOMALY": 353.5337, "EPHEMERIS_TYPE": 0, "CLASSIFICATION_TYPE": "U", "NORAD_CAT_ID": 34635, "ELEMENT_SET_NO": 999, "REV_AT_EPOCH": 73305, "BSTAR": 0.00077319356, "MEAN_MOTION_DOT": 4.463e-05, "MEAN_MOTION_DDOT": 0}, "tle": {"line1": "1 34635U 93036XG  25352.59217350  .00004463  00000+0  77319-3 0  9997", "line2": "2 34635  74.0459  59.4054 0028072 126.1956 353.5337 14.68338921733050"}}, "geometry": {"type": "Point", "coordinates": [-137.23478176425326, 42.9610751370161]}}, {"type": "Feature", "properties": {"norad_id": 34637, "name": "COSMOS 2251 DEB", "group": "cosmos-2251-debris", "lat": 43.551381109382234, "lon": -106.95588714631296, "alt_km": 656.7126889465599, "timestamp": "2025-12-19T04:59:48.701662+00:00", "meta": {"OBJECT_NAME": "COSMOS 2251 DEB", "OBJECT_ID": "1993-036XJ", "EPOCH": "2025-12-18T17:35:35.519136", "MEAN_MOTION": 14.6014838, "ECCENTRICITY": 0.00492757, "INCLINATION": 74.0499, "RA_OF_ASC_NODE": 89.7263, "ARG_OF_PERICENTER": 158.6766, "MEAN_ANOMALY": 359.0652, "EPHEMERIS_TYPE": 0, "CLASSIFICATION_TYPE": "U", "NORAD_CAT_ID": 34637, "ELEMENT_SET_NO": 999, "REV_AT_EPOCH": 88614, "BSTAR": 0.00066169328, "MEAN_MOTION_DOT": 3.211e-05, "MEAN_MOTION_DDOT": 0}, "tle": {"line1": "1 34637U 93036XJ  25352.73304999  .00003211  00000+0  66169-3 0  9992", "line2": "2 34637  74.0499  89.7263 0049275 158.6766 359.0652 14.60148380886141"}}, "geometry": {"type": "Point", "coordinates": [-106.95588714631296, 43.551381109382234]}}, {"type": "Feature", "properties": {"norad_id": 34641, "name": "COSMOS 2251 DEB", "group": "cosmos-2251-debris", "lat": -59.013212766178064, "lon": 40.44471218773048, "alt_km": 716.4468644864864, "timestamp": "2025-12-19T04:59:48.701672+00:00", "meta": {"OBJECT_NAME": "COSMOS 2251 DEB", "OBJECT_ID": "1993-036XN", "EPOCH": "2025-12-18T06:23:44.080224", "MEAN_MOTION": 14.52044087, "ECCENTRICITY": 0.0018715, "INCLINATION": 73.8399, "RA_OF_ASC_NODE": 71.1098, "ARG_OF_PERICENTER": 344.6386, "MEAN_ANOMALY": 71.632, "EPHEMERIS_TYPE": 0, "CLASSIFICATION_TYPE": "U", "NORAD_CAT_ID": 34641, "ELEMENT_SET_NO": 999, "REV_AT_EPOCH": 88336, "BSTAR": 0.00072302378, "MEAN_MOTION_DOT": 2.902e-05, "MEAN_MOTION_DDOT": 0}, "tle": {"line1": "1 34641U 93036XN  25352.26648241  .00002902  00000+0  72302-3 0  9998", "line2": "2 34641  73.8399  71.1098 0018715 344.6386  71.6320 14.52044087883363"}}, "geometry": {"type": "Point", "coordinates": [40.44471218773048, -59.013212766178064]}}, {"type": "Feature", "properties": {"norad_id": 34642, "name": "COSMOS 2251 DEB", "group": "cosmos-2251-debris", "lat": -46.79126510819007, "lon": 166.37728358463306, "alt_km": 880.4617525516305, "timestamp": "2025-12-19T04:59:48.701683+00:00", "meta": {"OBJECT_NAME": "COSMOS 2251 DEB", "OBJECT_ID": "1993-036XP", "EPOCH": "2025-12-18T09:45:59.315328", "MEAN_MOTION": 13.98988721, "ECCENTRICITY": 0.02067628, "INCLINATION": 74.0043, "RA_OF_ASC_NODE": 329.9846, "ARG_OF_PERICENTER": 148.5109, "MEAN_ANOMALY": 4.4763, "EPHEMERIS_TYPE": 0, "CLASSIFICATION_TYPE": "U", "NORAD_CAT_ID": 34642, "ELEMENT_SET_NO": 999, "REV_AT_EPOCH": 85372, "BSTAR": 0.00065937627, "MEAN_MOTION_DOT": 1.121e-05, "MEAN_MOTION_DDOT": 0}, "tle": {"line1": "1 34642U 93036XP  25352.40693652  .00001121  00000+0  65938-3 0  9990", "line2": "2 34642  74.0043 329.9846 0206762 148.5109   4.4763 13.98988721853726"}}, "geometry": {"type": "Point", "coordinates": [166.37728358463306, -46.79126510819007]}}, {"type": "Feature", "properties": {"norad_id": 34671, "name": "COSMOS 2251 DEB", "group": "cosmos-2251-debris", "lat": 27.68991075645328, "lon": 130.45286425725237, "alt_km": 676.7380698355, "timestamp": "2025-12-19T04:59:48.701694+00:00", "meta": {"OBJECT_NAME": "COSMOS 2251 DEB", "OBJECT_ID": "1993-036XR", "EPOCH": "2025-12-18T19:44:09.862368", "MEAN_MOTION": 14.67035809, "ECCENTRICITY": 0.00110081, "INCLINATION": 74.0266, "RA_OF_ASC_NODE": 122.5523, "ARG_OF_PERICENTER": 203.3177, "MEAN_ANOMALY": 308.6526, "EPHEMERIS_TYPE": 0, "CLASSIFICATION_TYPE": "U", "NORAD_CAT_ID": 34671, "ELEMENT_SET_NO": 999, "REV_AT_EPOCH": 88386, "BSTAR": 0.0012203972, "MEAN_MOTION_DOT": 6.827e-05, "MEAN_MOTION_DDOT": 0}, "tle": {"line1": "1 34671U 93036XR  25352.82233637  .00006827  00000+0  12204-2 0  9996", "line2": "2 34671  74.0266 122.5523 0011008 203.3177 308.6526 14.67035809883867"}}, "geometry": {"type": "Point", "coordinates": [130.45286425725237, 27.68991075645328]}}, {"type": "Feature", "properties": {"norad_id": 34672, "name": "COSMOS 2251 DEB", "group": "cosmos-2251-debris", "lat": -35.242705408533, "lon": 125.37488504300185, "alt_km": 790.8241017157197, "timestamp": "2025-12-19T04:59:48.701704+00:00", "meta": {"OBJECT_NAME": "COSMOS 2251 DEB", "OBJECT_ID": "1993-036XS", "EPOCH": "2025-12-18T13:28:46.255872", "MEAN_MOTION": 14.36417673, "ECCENTRICITY": 0.00241418, "INCLINATION": 74.0338, "RA_OF_ASC_NODE": 294.8922, "ARG_OF_PERICENTER": 5.7391, "MEAN_ANOMALY": 109.133, "EPHEMERIS_TYPE": 0, "CLASSIFICATION_TYPE": "U", "NORAD_CAT_ID": 34672, "ELEMENT_SET_NO": 999, "REV_AT_EPOCH": 65261, "BSTAR": 0.00020838077, "MEAN_MOTION_DOT": 5.86e-06, "MEAN_MOTION_DDOT": 0}, "tle": {"line1": "1 34672U 93036XS  25352.56164648  .00000586  00000+0  20838-3 0  9992", "line2": "2 34672  74.0338 294.8922 0024141   5.7391 109.1330 14.36417673652611"}}, "geometry": {"type": "Point", "coordinates": [125.37488504300185, -35.242705408533]}}, {"type": "Feature", "properties": {"norad_id": 34678, "name": "COSMOS 2251 DEB", "group": "cosmos-2251-debris", "lat": -66.1600348534677, "lon": -145.69689251682192, "alt_km": 813.4913263569324, "timestamp": "2025-12-19T04:59:48.701714+00:00", "meta": {"OBJECT_NAME": "COSMOS 2251 DEB", "OBJECT_ID": "1993-036XY", "EPOCH": "2025-12-18T11:45:31.328352", "MEAN_MOTION": 14.30066037, "ECCENTRICITY": 0.00245747, "INCLINATION": 74.0376, "RA_OF_ASC_NODE": 355.2383, "ARG_OF_PERICENTER": 42.5322, "MEAN_ANOMALY": 113.3622, "EPHEMERIS_TYPE": 0, "CLASSIFICATION_TYPE": "U", "NORAD_CAT_ID": 34678, "ELEMENT_SET_NO": 999, "REV_AT_EPOCH": 87461, "BSTAR": 2.9350181e-05, "MEAN_MOTION_DOT": 5e-07, "MEAN_MOTION_DDOT": 0}, "tle": {"line1": "1 34678U 93036XY  25352.48994593  .00000050  00000+0  29350-4 0  9994", "line2": "2 34678  74.0376 355.2383 0024574  42.5322 113.3622 14.30066037874610"}}, "geometry": {"type": "Point", "coordinates": [-145.69689251682192, -66.1600348534677]}}, {"type": "Feature", "properties": {"norad_id": 34680, "name": "COSMOS 2251 DEB", "group": "cosmos-2251-debris", "lat": 13.470399820870398, "lon": -66.42295651622743, "alt_km": 688.772472462183, "timestamp": "2025-12-19T04:59:48.701724+00:00", "meta": {"OBJECT_NAME": "COSMOS 2251 DEB", "OBJECT_ID": "1993-036YA", "EPOCH": "2025-12-18T08:39:27.142848", "MEAN_MOTION": 14.60682322, "ECCENTRICITY": 0.00065553, "INCLINATION": 74.0428, "RA_OF_ASC_NODE": 119.1245, "ARG_OF_PERICENTER": 218.9141, "MEAN_ANOMALY": 172.4418, "EPHEMERIS_TYPE": 0, "CLASSIFICATION_TYPE": "U", "NORAD_CAT_ID": 34680, "ELEMENT_SET_NO": 999, "REV_AT_EPOCH": 88410, "BSTAR": 0.00092042138, "MEAN_MOTION_DOT": 4.458e-05, "MEAN_MOTION_DDOT": 0}, "tle": {"line1": "1 34680U 93036YA  25352.36073082  .00004458  00000+0  92042-3 0  9998", "line2": "2 34680  74.0428 119.1245 0006555 218.9141 172.4418 14.60682322884100"}}, "geometry": {"type": "Point", "coordinates": [-66.42295651622743, 13.470399820870398]}}, {"type": "Feature", "properties": {"norad_id": 34681, "name": "COSMOS 2251 DEB", "group": "cosmos-2251-debris", "lat": -20.06169018088187, "lon": 103.59880960746685, "alt_km": 635.7010261692185, "timestamp": "2025-12-19T04:59:48.701734+00:00", "meta": {"OBJECT_NAME": "COSMOS 2251 DEB", "OBJECT_ID": "1993-036YB", "EPOCH": "2025-12-18T21:57:24.073344", "MEAN_MOTION": 14.83355637, "ECCENTRICITY": 0.00256233, "INCLINATION": 74.0633, "RA_OF_ASC_NODE": 278.1887, "ARG_OF_PERICENTER": 333.9898, "MEAN_ANOMALY": 101.2082, "EPHEMERIS_TYPE": 0, "CLASSIFICATION_TYPE": "U", "NORAD_CAT_ID": 34681, "ELEMENT_SET_NO": 999, "REV_AT_EPOCH": 89362, "BSTAR": 0.0011004026, "MEAN_MOTION_DOT": 9.05e-05, "MEAN_MOTION_DDOT": 0}, "tle": {"line1": "1 34681U 93036YB  25352.91486196  .00009050  00000+0  11004-2 0  9995", "line2": "2 34681  74.0633 278.1887 0025623 333.9898 101.2082 14.83355637893626"}}, "geometry": {"type": "Point", "coordinates": [103.59880960746685, -20.06169018088187]}}, {"type": "Feature", "properties": {"norad_id": 34682, "name": "COSMOS 2251 DEB", "group": "cosmos-2251-debris", "lat": 66.28827193508062, "lon": -149.98956622231722, "alt_km": 690.9451019149328, "timestamp": "2025-12-19T04:59:48.701745+00:00", "meta": {"OBJECT_NAME": "COSMOS 2251 DEB", "OBJECT_ID": "1993-036YC", "EPOCH": "2025-12-18T13:59:30.371424", "MEAN_MOTION": 14.58935669, "ECCENTRICITY": 0.00180703, "INCLINATION": 74.0403, "RA_OF_ASC_NODE": 71.8598, "ARG_OF_PERICENTER": 204.3785, "MEAN_ANOMALY": 221.1833, "EPHEMERIS_TYPE": 0, "CLASSIFICATION_TYPE": "U", "NORAD_CAT_ID": 34682, "ELEMENT_SET_NO": 999, "REV_AT_EPOCH": 88771, "BSTAR": 0.00055987678, "MEAN_MOTION_DOT": 2.602e-05, "MEAN_MOTION_DDOT": 0}, "tle": {"line1": "1 34682U 93036YC  25352.58299041  .00002602  00000+0  55988-3 0  9996", "line2": "2 34682  74.0403  71.8598 0018070 204.3785 221.1833 14.58935669887713"}}, "geometry": {"type": "Point", "coordinates": [-149.98956622231722, 66.28827193508062]}}]}